{"type": "FeatureCollection", "attribution": "© OpenStreetMap contributors (ODbL)", "features": [{"type": "Feature", "geometry": {"type": "Polygon", "coordinates": [[[69.5863291, 41.4304896], [69.5971895, 41.4488792], [69.6091929, 41.48516], [69.6341544, 41.5117939], [69.6425709, 41.5137959], [69.6367095, 41.5220335], [69.6291291, 41.5248076], [69.6313223, 41.5294441], [69.6180803, 41.5149033], [69.6281948, 41.5269433], [69.6276162, 41.5387468], [69.6498838, 41.5656053], [69.642014, 41.5866637], [69.673072, 41.5945713], [69.7302286, 41.6496546], [69.7325414, 41.6683328], [69.7397002, 41.6745029], [69.7309354, 41.694447], [69.7456168, 41.7008277], [69.7739321, 41.6965329], [69.7910587, 41.7019229], [69.7994121, 41.7079312], [69.8128663, 41.7081864], [69.8391215, 41.7204589], [69.858848, 41.71733], [69.8660699, 41.7106938], [69.881111, 41.706676], [69.894317, 41.70676], [69.9175419, 41.7136868], [69.9225931, 41.716344], [69.9219078, 41.724602], [69.9247384, 41.7265412], [69.9389889, 41.7254606], [69.9576833, 41.7337735], [69.9606657, 41.7415914], [69.9581072, 41.7517174], [69.9625582, 41.7562715], [69.9753266, 41.7583639], [69.9724112, 41.7695887], [69.9795065, 41.7710502], [69.9807822, 41.7807866], [69.9904088, 41.7881723], [69.9998773, 41.7886742], [69.9978305, 41.7994447], [69.992466, 41.8002885], [69.9992135, 41.8063872], [70.0034143, 41.806383], [70.0039711, 41.8016407], [70.0132094, 41.7967804], [70.021427, 41.7958594], [70.0213159, 41.7851154], [70.034686, 41.7810523], [70.0347732, 41.7765258], [70.0425048, 41.7757025], [70.0513585, 41.7796739], [70.0509627, 41.7993877], [70.0564351, 41.8043075], [70.0769293, 41.8086692], [70.089485, 41.8213349], [70.0944192, 41.8223118], [70.1027368, 41.8373072], [70.1180431, 41.8374564], [70.1202031, 41.840566], [70.1355193, 41.8443457], [70.1467559, 41.8365785], [70.1532136, 41.839773], [70.157722, 41.8494606], [70.1631904, 41.850104], [70.1695923, 41.8561358], [70.175865, 41.855308], [70.184532, 41.864395], [70.1811115, 41.883104], [70.1970557, 41.8872651], [70.194816, 41.890876], [70.1989049, 41.8997071], [70.1950765, 41.9018622], [70.196479, 41.904483], [70.2092668, 41.9036857], [70.2166968, 41.9129532], [70.2273849, 41.9172346], [70.2284232, 41.9211902], [70.223518, 41.928379], [70.2280452, 41.9346252], [70.258979, 41.9493126], [70.2614384, 41.9543202], [70.27391, 41.952903], [70.28807, 41.95787], [70.2910571, 41.9624622], [70.304924, 41.964206], [70.3088657, 41.9681755], [70.3280758, 41.9707474], [70.3352504, 41.9747055], [70.336853, 41.98471], [70.330062, 41.997066], [70.3327645, 42.018194], [70.3233045, 42.0273536], [70.3196471, 42.0367939], [70.3313184, 42.0417396], [70.3327817, 42.0472487], [70.3509493, 42.0507735], [70.3556137, 42.0575529], [70.3639988, 42.0583912], [70.3722328, 42.0643997], [70.3735146, 42.0693249], [70.4008772, 42.0694044], [70.4116984, 42.0776767], [70.4421228, 42.0918238], [70.459019, 42.0849916], [70.4781094, 42.1091852], [70.4909881, 42.104713], [70.4947578, 42.0996761], [70.5013841, 42.0991394], [70.5067618, 42.0895299], [70.5132277, 42.0880945], [70.5146915, 42.0831873], [70.5298086, 42.0848941], [70.545532, 42.073982], [70.5516285, 42.0577653], [70.557518, 42.052154], [70.5585293, 42.0430256], [70.5487015, 42.0350132], [70.5594286, 42.0235126], [70.5765179, 42.020431], [70.5870389, 42.0101856], [70.6065563, 42.0068513], [70.6249881, 42.0152808], [70.6391675, 42.0148569], [70.6348112, 42.0206135], [70.6364218, 42.0269421], [70.6515544, 42.0414161], [70.6557104, 42.0613948], [70.6650687, 42.0711033], [70.666168, 42.07759], [70.678779, 42.088375], [70.6786982, 42.0981967], [70.6871709, 42.1210878], [70.6950475, 42.1273446], [70.7072412, 42.1303181], [70.7146294, 42.1421132], [70.7258007, 42.147815], [70.7259915, 42.1572588], [70.737571, 42.165771], [70.7493646, 42.1657782], [70.7555542, 42.1709479], [70.7534779, 42.1759635], [70.740956, 42.178944], [70.7390937, 42.181906], [70.750926, 42.1933048], [70.7680106, 42.1935696], [70.770638, 42.200963], [70.7938434, 42.2094529], [70.8172477, 42.2032779], [70.8315575, 42.1951906], [70.8495564, 42.1975891], [70.8545521, 42.2079049], [70.8661085, 42.2118386], [70.8859077, 42.2115888], [70.8886202, 42.2136483], [70.8878997, 42.2200029], [70.9097941, 42.226767], [70.9135866, 42.2360437], [70.926506, 42.237537], [70.9255008, 42.2429313], [70.943305, 42.263467], [70.9628576, 42.2563446], [70.988482, 42.2527095], [71.0004982, 42.2560755], [71.0078862, 42.2654249], [71.0044525, 42.2707749], [71.0085936, 42.2777084], [71.0177423, 42.2809074], [71.0284826, 42.2935681], [71.0356991, 42.2914718], [71.0401805, 42.2944212], [71.0397714, 42.290506], [71.0491956, 42.2905548], [71.0636935, 42.2949036], [71.0763735, 42.2834543], [71.0920274, 42.2825241], [71.106577, 42.2739363], [71.1215963, 42.27779], [71.1245352, 42.2834652], [71.1334657, 42.2821769], [71.1517576, 42.2635562], [71.1655886, 42.2588056], [71.1713355, 42.2521724], [71.1783902, 42.2515823], [71.1911758, 42.2412076], [71.2001716, 42.2435934], [71.2089637, 42.237095], [71.2062255, 42.2259337], [71.2172959, 42.2225966], [71.2271157, 42.223676], [71.2332805, 42.2293774], [71.2450159, 42.2277866], [71.2453514, 42.2191581], [71.250527, 42.2110015], [71.2671899, 42.2053285], [71.2654488, 42.2002015], [71.2690927, 42.1963697], [71.2585389, 42.1895835], [71.2562006, 42.1835196], [71.2504953, 42.1818215], [71.25921, 42.1726247], [71.2583621, 42.1679359], [71.247215, 42.1660205], [71.2377535, 42.1531779], [71.2202102, 42.1487689], [71.2265943, 42.1436794], [71.222736, 42.1395691], [71.2101756, 42.13604], [71.1995186, 42.1376394], [71.1953726, 42.1435494], [71.1831911, 42.1416626], [71.1755491, 42.144058], [71.1527121, 42.1302841], [71.1411237, 42.1339664], [71.1298427, 42.1165025], [71.117081, 42.1127097], [71.1076323, 42.1158185], [71.1035554, 42.1128948], [71.0996664, 42.0946194], [71.0845694, 42.0943605], [71.0681608, 42.0852068], [71.0563691, 42.0852393], [71.0564517, 42.0828266], [71.0494282, 42.0810627], [71.0467266, 42.0712031], [71.0401427, 42.0636521], [71.0289571, 42.0677232], [71.0246665, 42.0611812], [71.0153554, 42.0611149], [71.0064468, 42.0569845], [71.0134782, 42.0523595], [71.0020894, 42.044104], [70.9927462, 42.0304072], [70.9792372, 42.0329253], [70.9422029, 42.0311812], [70.9144519, 42.0419139], [70.9005941, 42.0409313], [70.8934816, 42.0503412], [70.8881354, 42.0519242], [70.8853225, 42.0473242], [70.8789916, 42.0461255], [70.8651702, 42.0541323], [70.8607589, 42.0482911], [70.8613337, 42.042792], [70.8556322, 42.0398977], [70.859114, 42.0267999], [70.8469238, 42.0185016], [70.8378758, 41.9997011], [70.8520336, 41.9889848], [70.8485704, 41.9765459], [70.8529442, 41.9572609], [70.8557755, 41.9553271], [70.8519226, 41.9478902], [70.8539149, 41.9415169], [70.8458076, 41.9388924], [70.8447193, 41.9336182], [70.8348048, 41.9231054], [70.8155783, 41.9265491], [70.8068604, 41.9206212], [70.7900151, 41.9291108], [70.7803316, 41.9266271], [70.7732782, 41.9283818], [70.766662, 41.935587], [70.7572325, 41.9364243], [70.7573258, 41.9181476], [70.7526847, 41.9127357], [70.7384731, 41.9138927], [70.730363, 41.9205009], [70.7137386, 41.9204959], [70.6939052, 41.914558], [70.6872449, 41.9155668], [70.6649614, 41.9069509], [70.6607789, 41.9011266], [70.6619818, 41.8938965], [70.6491855, 41.882237], [70.6459308, 41.8741802], [70.6379668, 41.8721357], [70.639736, 41.8683083], [70.6287543, 41.853324], [70.6033611, 41.8507165], [70.5977481, 41.8353067], [70.5966606, 41.824367], [70.5993242, 41.8198265], [70.5785299, 41.8197525], [70.5691104, 41.8106463], [70.5275022, 41.7985755], [70.5086934, 41.7720535], [70.5089031, 41.7613057], [70.5047453, 41.7506422], [70.5088897, 41.7467959], [70.5059339, 41.742897], [70.5067044, 41.7365869], [70.4966927, 41.7196874], [70.4668041, 41.7206278], [70.4498127, 41.7025461], [70.4363982, 41.7004228], [70.4197291, 41.6904113], [70.3965693, 41.6841771], [70.3856691, 41.6738805], [70.3670735, 41.6474849], [70.3418996, 41.6381553], [70.3220284, 41.63684], [70.3018455, 41.6312249], [70.2926142, 41.6216872], [70.2789478, 41.6197336], [70.2752032, 41.6130176], [70.2658428, 41.6074629], [70.2406557, 41.6171152], [70.2272339, 41.6106787], [70.2092461, 41.611957], [70.2107979, 41.6073282], [70.2082837, 41.6041965], [70.2157815, 41.5950335], [70.2147129, 41.5858411], [70.2086188, 41.5733038], [70.191723, 41.5690831], [70.1879518, 41.5622489], [70.1792873, 41.5574959], [70.1875726, 41.5449556], [70.1845308, 41.5423512], [70.1813669, 41.5273486], [70.1749146, 41.5251752], [70.1689582, 41.5153538], [70.1722959, 41.5168219], [70.1862181, 41.5091674], [70.211166, 41.5042007], [70.2192644, 41.4958524], [70.2291644, 41.4916483], [70.2404393, 41.4913852], [70.2673043, 41.4981226], [70.2732101, 41.5028653], [70.2763326, 41.5117338], [70.3031382, 41.5206138], [70.3109412, 41.5105665], [70.3204878, 41.5067585], [70.3250383, 41.5004818], [70.3383864, 41.5004045], [70.3388914, 41.4972793], [70.3480089, 41.4929823], [70.3634716, 41.492685], [70.3726654, 41.482623], [70.3719634, 41.4775919], [70.3808817, 41.4665986], [70.3961411, 41.4710245], [70.4074555, 41.4703564], [70.4110252, 41.4607122], [70.4187675, 41.454377], [70.4385664, 41.4463687], [70.442144, 41.4401414], [70.4638759, 41.4269068], [70.4701399, 41.4161972], [70.4698796, 41.4087939], [70.4880087, 41.3981736], [70.4952697, 41.3975471], [70.4893868, 41.3895637], [70.4914765, 41.3865636], [70.4873061, 41.3764146], [70.4740109, 41.3648102], [70.4757689, 41.3585126], [70.4704352, 41.347808], [70.4545635, 41.3406575], [70.4318726, 41.318388], [70.4166886, 41.3084331], [70.4015666, 41.3126054], [70.394319, 41.3073037], [70.3942295, 41.296863], [70.3882025, 41.2900288], [70.3884322, 41.2609368], [70.38419, 41.2567578], [70.3719793, 41.252816], [70.3624246, 41.2566601], [70.3491386, 41.2468376], [70.3391467, 41.247789], [70.3343301, 41.2419228], [70.3167109, 41.2442859], [70.2989603, 41.2377429], [70.2786622, 41.2249408], [70.2520689, 41.2306985], [70.2310474, 41.2239141], [70.221895, 41.22455], [70.203948, 41.2367919], [70.1885596, 41.2385682], [70.1816636, 41.245622], [70.174433, 41.2476392], [70.160581, 41.2441895], [70.1527096, 41.2458841], [70.1394141, 41.241265], [70.1268065, 41.248526], [70.0945325, 41.2555022], [70.0622523, 41.274598], [70.0560308, 41.2726524], [70.043987, 41.2755779], [70.0333319, 41.2718035], [70.0188745, 41.2764697], [69.9969186, 41.2749987], [69.9737512, 41.2633558], [69.9687893, 41.2664678], [69.9638335, 41.2815383], [69.9674736, 41.3163634], [69.991585, 41.3517634], [70.0039728, 41.3543358], [70.0308536, 41.3808981], [70.0620495, 41.3904486], [70.068683, 41.4004635], [70.0630316, 41.4116846], [70.0653559, 41.4185214], [70.0583099, 41.4250352], [70.060308, 41.4357882], [70.0691886, 41.4445947], [70.0608958, 41.4521518], [70.0643194, 41.4627124], [70.0591029, 41.474488], [70.0623484, 41.483837], [70.0489436, 41.487434], [70.0363302, 41.4870482], [70.02899, 41.4801491], [70.0161948, 41.4822032], [70.0026967, 41.478253], [69.9826604, 41.4802018], [69.9632851, 41.4686533], [69.9138646, 41.4529557], [69.9020994, 41.4457584], [69.9014496, 41.4415415], [69.8860026, 41.4241893], [69.8751212, 41.4191516], [69.8584479, 41.3909788], [69.8511821, 41.3867879], [69.8516746, 41.3807553], [69.8402297, 41.3774298], [69.8267698, 41.3646351], [69.816125, 41.3616879], [69.7954062, 41.3478613], [69.7801281, 41.356576], [69.7700342, 41.3562539], [69.7685611, 41.3598604], [69.7573976, 41.3649413], [69.7614569, 41.3679512], [69.7499709, 41.374571], [69.7321121, 41.3726534], [69.7184397, 41.3778058], [69.7064639, 41.3764464], [69.6901749, 41.3818105], [69.6769874, 41.3782196], [69.673534, 41.381106], [69.6747629, 41.3839944], [69.661325, 41.3879761], [69.6567316, 41.3841049], [69.6461158, 41.3841682], [69.6598363, 41.3930525], [69.6607061, 41.3995489], [69.6679066, 41.4046469], [69.7118446, 41.4135159], [69.7122564, 41.4230192], [69.7177626, 41.4296112], [69.7116926, 41.4424563], [69.7070944, 41.440599], [69.7000543, 41.4447749], [69.6952505, 41.4420768], [69.6863626, 41.4472232], [69.6826005, 41.4438698], [69.6760814, 41.4441444], [69.6557791, 41.4493078], [69.6547113, 41.4436939], [69.6446339, 41.4381657], [69.6480377, 41.4345333], [69.6314005, 41.4431379], [69.6154645, 41.4309941], [69.597652, 41.4101697], [69.5897464, 41.4308384], [69.5863291, 41.4304896]]]}, "properties": {"name": "Бостанлыкский район", "name_uz": "Bo'stonliq Tumani", "admin_level": "6", "osm_id": 2120216}}, {"type": "Feature", "geometry": {"type": "Polygon", "coordinates": [[[69.0170696, 41.273414], [69.013858, 41.2895303], [69.0186939, 41.2986477], [69.0266007, 41.2981038], [69.0299624, 41.3032137], [69.0376495, 41.3016472], [69.0449647, 41.3099814], [69.0561932, 41.3107568], [69.0583904, 41.3268142], [69.0729601, 41.3353701], [69.0746982, 41.3394945], [69.0896542, 41.3363199], [69.0946109, 41.3502072], [69.0985591, 41.3529616], [69.1164348, 41.3523697], [69.1301896, 41.3431268], [69.142996, 41.3420056], [69.1459252, 41.3445979], [69.1505618, 41.3407834], [69.163019, 41.3515862], [69.1667838, 41.3631245], [69.1716332, 41.3667319], [69.185009, 41.3681195], [69.1667014, 41.3537556], [69.1627123, 41.333327], [69.1598578, 41.3282047], [69.1548638, 41.3272316], [69.1542882, 41.3215902], [69.14663, 41.3136644], [69.1485044, 41.3051132], [69.1321243, 41.2880034], [69.1349348, 41.284118], [69.1334581, 41.2789222], [69.121797, 41.2662613], [69.1314924, 41.2689961], [69.1475493, 41.2809564], [69.1476985, 41.2628415], [69.1634863, 41.2502056], [69.1670716, 41.2403082], [69.1654154, 41.2366133], [69.1741075, 41.2283225], [69.171904, 41.2251036], [69.1745567, 41.2188075], [69.1838208, 41.2168158], [69.1815358, 41.2145475], [69.1852372, 41.2103696], [69.1823834, 41.2067011], [69.1858545, 41.2048552], [69.1863911, 41.1962029], [69.2029596, 41.1778384], [69.2116621, 41.173478], [69.1928356, 41.1659625], [69.1721031, 41.1674026], [69.1578905, 41.1582365], [69.1362445, 41.161472], [69.1279459, 41.1573397], [69.1264647, 41.1618089], [69.1218596, 41.1621001], [69.1138649, 41.1697671], [69.1429335, 41.1916026], [69.1176033, 41.2114289], [69.1035848, 41.2109068], [69.0995436, 41.2050764], [69.0934346, 41.2041652], [69.0853392, 41.1926819], [69.0834415, 41.1963286], [69.0658034, 41.1985458], [69.0464137, 41.1891175], [69.0412019, 41.1954865], [69.0194821, 41.2027531], [69.034971, 41.2113202], [69.0318464, 41.2250621], [69.0264699, 41.230951], [69.029262, 41.2392675], [69.0210305, 41.2459015], [69.0256911, 41.250459], [69.0391874, 41.2544685], [69.0411017, 41.2613588], [69.0380902, 41.2663196], [69.0170696, 41.273414]]]}, "properties": {"name": "Зангиатинский район", "name_uz": "Zangiota Tumani", "admin_level": "6", "osm_id": 4060435}}, {"type": "Feature", "geometry": {"type": "Polygon", "coordinates": [[[69.3250626, 41.3696722], [69.3357267, 41.3747902], [69.3425136, 41.3825579], [69.3334192, 41.3831783], [69.333622, 41.3881641], [69.3268055, 41.389298], [69.3286753, 41.3934541], [69.3326523, 41.3930423], [69.3305023, 41.3951341], [69.3225002, 41.3953934], [69.3193839, 41.39055], [69.2980746, 41.3922037], [69.293398, 41.3959419], [69.2960737, 41.3982116], [69.2956368, 41.4052724], [69.3013761, 41.4117221], [69.3325202, 41.4136193], [69.3335152, 41.4180796], [69.3442768, 41.4236166], [69.3422489, 41.4317974], [69.3456257, 41.4364465], [69.373659, 41.4442528], [69.3721241, 41.4456797], [69.4098133, 41.44971], [69.4128745, 41.4601239], [69.4199054, 41.4641409], [69.4351222, 41.4610357], [69.4455643, 41.4641924], [69.4522527, 41.4625803], [69.4605835, 41.467399], [69.4569026, 41.4688419], [69.4542635, 41.4881383], [69.4384748, 41.4878766], [69.4244003, 41.4985192], [69.4003377, 41.5032392], [69.3976836, 41.507016], [69.4066825, 41.524173], [69.4276556, 41.5407049], [69.4451213, 41.5631621], [69.4547583, 41.5693137], [69.4606169, 41.5689458], [69.4766143, 41.558885], [69.4812313, 41.5510178], [69.500272, 41.5475914], [69.5273934, 41.563537], [69.5493264, 41.569705], [69.5493102, 41.5727063], [69.5377026, 41.578318], [69.538887, 41.588661], [69.55706, 41.596969], [69.563911, 41.606258], [69.565856, 41.614734], [69.571563, 41.61716], [69.576469, 41.629512], [69.6075291, 41.6484053], [69.6168953, 41.6628183], [69.630284, 41.6634037], [69.6493967, 41.6703651], [69.668525, 41.668655], [69.68116, 41.677486], [69.6899153, 41.6738429], [69.705359, 41.6780702], [69.712944, 41.676876], [69.7176136, 41.6862163], [69.722572, 41.686302], [69.7309354, 41.694447], [69.7397002, 41.6745029], [69.7325414, 41.6683328], [69.7302286, 41.6496546], [69.673072, 41.5945713], [69.642014, 41.5866637], [69.6498838, 41.5656053], [69.6276162, 41.5387468], [69.6276686, 41.5259782], [69.6177836, 41.5145912], [69.6061364, 41.5130913], [69.5902955, 41.5034762], [69.5617498, 41.4933443], [69.5627567, 41.4896815], [69.5313741, 41.4627462], [69.5351465, 41.4575377], [69.531473, 41.4480732], [69.5343986, 41.4433036], [69.5245764, 41.4303861], [69.533332, 41.4264252], [69.5344379, 41.42216], [69.557844, 41.4360759], [69.5748897, 41.4345598], [69.5680977, 41.4245806], [69.5763794, 41.4287131], [69.5503811, 41.4068575], [69.5406547, 41.3947992], [69.5386622, 41.3870716], [69.5240726, 41.3807622], [69.4791812, 41.346786], [69.4742424, 41.3491247], [69.4614677, 41.3456256], [69.4078855, 41.3422233], [69.4111508, 41.3477653], [69.4108014, 41.3556639], [69.4046008, 41.3637666], [69.3988645, 41.3659916], [69.3754199, 41.3613372], [69.3637518, 41.3625033], [69.3519624, 41.3546253], [69.3440566, 41.3560122], [69.3250626, 41.3696722]]]}, "properties": {"name": "Кибрайский район", "name_uz": "Qibray Tumani", "admin_level": "6", "osm_id": 5745803}}, {"type": "Feature", "geometry": {"type": "Polygon", "coordinates": [[[69.597652, 41.4101697], [69.6154645, 41.4309941], [69.6314005, 41.4431379], [69.6480377, 41.4345333], [69.6446339, 41.4381657], [69.6547113, 41.4436939], [69.6557791, 41.4493078], [69.6760814, 41.4441444], [69.6826005, 41.4438698], [69.6863626, 41.4472232], [69.6952505, 41.4420768], [69.7000543, 41.4447749], [69.7070944, 41.440599], [69.7116926, 41.4424563], [69.7177626, 41.4296112], [69.7122564, 41.4230192], [69.7118446, 41.4135159], [69.6679066, 41.4046469], [69.6607061, 41.3995489], [69.6598363, 41.3930525], [69.6461158, 41.3841682], [69.6567316, 41.3841049], [69.661325, 41.3879761], [69.6747629, 41.3839944], [69.673534, 41.381106], [69.6769874, 41.3782196], [69.6901749, 41.3818105], [69.7064639, 41.3764464], [69.7184397, 41.3778058], [69.7321121, 41.3726534], [69.7499709, 41.374571], [69.7614569, 41.3679512], [69.7573976, 41.3649413], [69.7685611, 41.3598604], [69.7700342, 41.3562539], [69.7801281, 41.356576], [69.7954062, 41.3478613], [69.816125, 41.3616879], [69.8267698, 41.3646351], [69.8402297, 41.3774298], [69.8516746, 41.3807553], [69.8511821, 41.3867879], [69.8584479, 41.3909788], [69.8751212, 41.4191516], [69.8914906, 41.4294393], [69.9020994, 41.4457584], [69.9218179, 41.4560089], [69.9285104, 41.4555727], [69.9476179, 41.4652401], [69.9632851, 41.4686533], [69.9826604, 41.4802018], [70.0026967, 41.478253], [70.0161948, 41.4822032], [70.02899, 41.4801491], [70.0363302, 41.4870482], [70.0460476, 41.4877356], [70.0623484, 41.483837], [70.0591029, 41.474488], [70.0643194, 41.4627124], [70.0608958, 41.4521518], [70.0691886, 41.4445947], [70.0619371, 41.4385619], [70.0586116, 41.4289564], [70.0583099, 41.4250352], [70.065686, 41.4171472], [70.0630316, 41.4116846], [70.068683, 41.4004635], [70.0652108, 41.3938598], [70.0473389, 41.38428], [70.0308536, 41.3808981], [70.0039728, 41.3543358], [69.991585, 41.3517634], [69.9674736, 41.3163634], [69.9638335, 41.2815383], [69.9661079, 41.2700955], [69.9737512, 41.2633558], [69.9763809, 41.2471145], [69.9724775, 41.2404956], [69.9746506, 41.2307887], [69.9706083, 41.2243594], [69.9412045, 41.2020039], [69.9423652, 41.1968726], [69.9381574, 41.1896664], [69.9226385, 41.1841371], [69.9206568, 41.1782776], [69.9080588, 41.177958], [69.8998489, 41.1701801], [69.8855523, 41.1632537], [69.8697406, 41.1364521], [69.8465468, 41.1277904], [69.8029107, 41.0940809], [69.7844067, 41.0893977], [69.7614839, 41.0895018], [69.7592606, 41.0827143], [69.7535973, 41.0812423], [69.7375837, 41.0906627], [69.7264523, 41.0890436], [69.7246699, 41.0940146], [69.706309, 41.0891415], [69.6885916, 41.1073238], [69.6858316, 41.1056874], [69.6798615, 41.1083261], [69.6778364, 41.1134815], [69.6621999, 41.1176375], [69.6612948, 41.1209026], [69.6678225, 41.1306695], [69.6640082, 41.130361], [69.6639757, 41.1376026], [69.6443186, 41.1362136], [69.6168332, 41.1188624], [69.5940582, 41.1204502], [69.5819507, 41.1295358], [69.5880027, 41.1320109], [69.5844484, 41.1330148], [69.5900722, 41.1460796], [69.5968686, 41.1496481], [69.635506, 41.1519872], [69.6388214, 41.1585879], [69.6466425, 41.1631406], [69.6205016, 41.159756], [69.6173454, 41.163021], [69.6165212, 41.1779349], [69.6324419, 41.1914004], [69.626126, 41.1920183], [69.6237351, 41.1969489], [69.6252669, 41.2088331], [69.6174812, 41.2128818], [69.5726548, 41.2051435], [69.5576527, 41.2296256], [69.5538478, 41.2259284], [69.543757, 41.2277786], [69.5415086, 41.2212784], [69.5321587, 41.2226077], [69.5288974, 41.2279399], [69.5347231, 41.2373508], [69.5371618, 41.2534542], [69.5473282, 41.2643115], [69.5554094, 41.2940703], [69.5629066, 41.3079793], [69.5481572, 41.3107487], [69.5552738, 41.3128976], [69.5564219, 41.3201896], [69.5601247, 41.3221205], [69.567538, 41.3226429], [69.5720852, 41.3194397], [69.5764684, 41.3252086], [69.5700493, 41.335045], [69.5749696, 41.3396868], [69.5626966, 41.3465438], [69.5612932, 41.3506877], [69.5789978, 41.3673257], [69.5921851, 41.3717236], [69.5809597, 41.3706437], [69.5651907, 41.3600379], [69.5604036, 41.3603331], [69.5586676, 41.364033], [69.5707283, 41.3826233], [69.5852003, 41.3936109], [69.597652, 41.4101697]]]}, "properties": {"name": "Паркентский район", "name_uz": "Parkent Tumani", "admin_level": "6", "osm_id": 5745823}}, {"type": "Feature", "geometry": {"type": "Polygon", "coordinates": [[[69.4007955, 41.1604181], [69.4292425, 41.1577334], [69.4541869, 41.1633059], [69.4619267, 41.1697697], [69.4688095, 41.1687721], [69.4774276, 41.1756401], [69.4830445, 41.1863129], [69.5049593, 41.2105433], [69.5088208, 41.22528], [69.5089883, 41.2432449], [69.5216424, 41.2721427], [69.5256893, 41.3028042], [69.4496262, 41.3208243], [69.4715807, 41.3380837], [69.4740156, 41.3449011], [69.5240726, 41.3807622], [69.5386622, 41.3870716], [69.5406547, 41.3947992], [69.5503811, 41.4068575], [69.575265, 41.4278395], [69.5897464, 41.4308384], [69.597652, 41.4101697], [69.5852003, 41.3936109], [69.5707283, 41.3826233], [69.5586676, 41.364033], [69.5604036, 41.3603331], [69.5651907, 41.3600379], [69.5809597, 41.3706437], [69.5921851, 41.3717236], [69.5789978, 41.3673257], [69.5612932, 41.3506877], [69.5626966, 41.3465438], [69.5749696, 41.3396868], [69.5700493, 41.335045], [69.5764684, 41.3252086], [69.5720852, 41.3194397], [69.567538, 41.3226429], [69.5601247, 41.3221205], [69.5564219, 41.3201896], [69.5552738, 41.3128976], [69.5481572, 41.3107487], [69.5629066, 41.3079793], [69.5554094, 41.2940703], [69.5473282, 41.2643115], [69.5371618, 41.2534542], [69.5347231, 41.2373508], [69.5288974, 41.2279399], [69.5321587, 41.2226077], [69.5415086, 41.2212784], [69.543757, 41.2277786], [69.5538478, 41.2259284], [69.5576527, 41.2296256], [69.5726548, 41.2051435], [69.6174812, 41.2128818], [69.623856, 41.2105642], [69.6237351, 41.1969489], [69.626126, 41.1920183], [69.6324419, 41.1914004], [69.6165212, 41.1779349], [69.6173454, 41.163021], [69.6205016, 41.159756], [69.6466425, 41.1631406], [69.6388214, 41.1585879], [69.635506, 41.1519872], [69.5968686, 41.1496481], [69.5900722, 41.1460796], [69.5844484, 41.1330148], [69.5880027, 41.1320109], [69.5819507, 41.1295358], [69.5940582, 41.1204502], [69.6168332, 41.1188624], [69.627003, 41.12715], [69.6475362, 41.1363391], [69.648854, 41.1175802], [69.6529431, 41.1140921], [69.6560931, 41.1020569], [69.6530864, 41.0942096], [69.6198989, 41.09249], [69.6181526, 41.0838885], [69.6093515, 41.0818656], [69.5779225, 41.0910484], [69.5646244, 41.0869886], [69.5395431, 41.0854661], [69.5339881, 41.0909215], [69.5092503, 41.0919799], [69.5047382, 41.0990381], [69.5093116, 41.1061813], [69.4875518, 41.1126965], [69.4796938, 41.1140673], [69.4733604, 41.1111155], [69.4438637, 41.1176371], [69.4290666, 41.1481549], [69.4397991, 41.153322], [69.4420723, 41.1586449], [69.4379194, 41.1538342], [69.4225579, 41.148599], [69.4153891, 41.1509897], [69.4099238, 41.148225], [69.4080892, 41.1517679], [69.3929422, 41.1521967], [69.4007955, 41.1604181]]]}, "properties": {"name": "Юкарычирчикский район", "name_uz": "Yuqorichirchiq Tumani", "admin_level": "6", "osm_id": 5745839}}, {"type": "Feature", "geometry": {"type": "Polygon", "coordinates": [[[69.4398694, 41.1232888], [69.4438637, 41.1176371], [69.4589067, 41.1134981], [69.4733604, 41.1111155], [69.4796938, 41.1140673], [69.5093116, 41.1061813], [69.5047382, 41.0990381], [69.5092503, 41.0919799], [69.5339881, 41.0909215], [69.5395431, 41.0854661], [69.5646244, 41.0869886], [69.5779225, 41.0910484], [69.6093515, 41.0818656], [69.6181526, 41.0838885], [69.6198989, 41.09249], [69.6530864, 41.0942096], [69.6560931, 41.1020569], [69.6529431, 41.1140921], [69.648854, 41.1175802], [69.6475362, 41.1363391], [69.6639757, 41.1376026], [69.6640082, 41.130361], [69.6678225, 41.1306695], [69.6612948, 41.1209026], [69.6621999, 41.1176375], [69.6778364, 41.1134815], [69.6798615, 41.1083261], [69.6858316, 41.1056874], [69.6885916, 41.1073238], [69.706309, 41.0891415], [69.7246699, 41.0940146], [69.7264523, 41.0890436], [69.7375837, 41.0906627], [69.7535973, 41.0812423], [69.7592606, 41.0827143], [69.7614839, 41.0895018], [69.7844067, 41.0893977], [69.8029107, 41.0940809], [69.8465468, 41.1277904], [69.8697406, 41.1364521], [69.8855523, 41.1632537], [69.8998489, 41.1701801], [69.9080588, 41.177958], [69.9206568, 41.1782776], [69.9226385, 41.1841371], [69.9381574, 41.1896664], [69.9423652, 41.1968726], [69.9412045, 41.2020039], [69.9648627, 41.2181084], [69.9736448, 41.2285825], [69.9724775, 41.2404956], [69.9763809, 41.2471145], [69.9737512, 41.2633558], [69.9969186, 41.2749987], [70.0188745, 41.2764697], [70.0333319, 41.2718035], [70.043987, 41.2755779], [70.0560308, 41.2726524], [70.0622523, 41.274598], [70.0945325, 41.2555022], [70.1268065, 41.248526], [70.1394141, 41.241265], [70.1527096, 41.2458841], [70.160581, 41.2441895], [70.174433, 41.2476392], [70.1816636, 41.245622], [70.1885596, 41.2385682], [70.203948, 41.2367919], [70.221895, 41.22455], [70.2310474, 41.2239141], [70.2520689, 41.2306985], [70.2786622, 41.2249408], [70.2989603, 41.2377429], [70.3167109, 41.2442859], [70.3343301, 41.2419228], [70.3391467, 41.247789], [70.3491386, 41.2468376], [70.3624246, 41.2566601], [70.3669442, 41.253449], [70.375564, 41.2535432], [70.3884322, 41.2609368], [70.4022867, 41.2626217], [70.4126637, 41.2692509], [70.451188, 41.2564635], [70.4372634, 41.2492831], [70.4265561, 41.2284196], [70.4280163, 41.2186653], [70.4253302, 41.2071227], [70.4357272, 41.1948889], [70.4343704, 41.184072], [70.4507711, 41.1703609], [70.4515108, 41.1626825], [70.438161, 41.153633], [70.444829, 41.1429458], [70.4557422, 41.1345311], [70.4837944, 41.1215026], [70.5192971, 41.0971009], [70.4958711, 41.0889292], [70.4969981, 41.0793535], [70.4813822, 41.0589293], [70.4725404, 41.0413097], [70.4586576, 41.0367855], [70.451633, 41.0385526], [70.4449451, 41.0450935], [70.4275523, 41.0361595], [70.4138457, 41.0344619], [70.3957205, 41.0268585], [70.3907991, 41.0149969], [70.3746187, 41.0029397], [70.388872, 40.9671064], [70.3872504, 40.9514526], [70.3816288, 40.9463006], [70.3706023, 40.9432649], [70.3792527, 40.9181412], [70.3718228, 40.8979968], [70.3351018, 40.8819886], [70.3263661, 40.8864945], [70.302532, 40.8770283], [70.2863537, 40.8747347], [70.2743734, 40.8667817], [70.266365, 40.8501598], [70.2012639, 40.8222158], [70.1811771, 40.833773], [70.1627133, 40.83423], [70.1423507, 40.8244211], [70.1273858, 40.8220623], [70.1201017, 40.8152579], [70.1243853, 40.8073988], [70.1137115, 40.7871151], [70.0984073, 40.7815852], [70.0681728, 40.755183], [70.0391369, 40.7531698], [70.0321341, 40.7448575], [70.0191545, 40.7426217], [70.0065143, 40.7360093], [69.9739261, 40.7389148], [69.9634873, 40.7320208], [69.961456, 40.725829], [69.9509974, 40.725791], [69.931455, 40.7165853], [69.9173631, 40.7204313], [69.8956147, 40.7198456], [69.8899187, 40.7255604], [69.8726712, 40.715202], [69.8414094, 40.7066051], [69.8350883, 40.6996686], [69.8224811, 40.7021309], [69.819291, 40.7184602], [69.7968081, 40.7268855], [69.7900881, 40.7453671], [69.77026, 40.7526578], [69.7617149, 40.7629639], [69.7568201, 40.7625869], [69.7349179, 40.7761585], [69.7184083, 40.8039086], [69.6998247, 40.8233734], [69.7038069, 40.8365559], [69.6968381, 40.8390666], [69.6953447, 40.8429579], [69.6829003, 40.8435855], [69.6745914, 40.8497431], [69.6630685, 40.8479626], [69.6663573, 40.8676246], [69.6555562, 40.8854387], [69.628544, 40.8902843], [69.6138318, 40.8974241], [69.5779779, 40.9068447], [69.5573396, 40.9059883], [69.5265528, 40.9179221], [69.5133096, 40.9194647], [69.512261, 40.9305857], [69.4954138, 40.9407175], [69.4750797, 40.9750867], [69.4624622, 40.9834322], [69.4548693, 40.9930407], [69.4521895, 41.0046703], [69.4411351, 41.0134333], [69.4446359, 41.0304525], [69.4314261, 41.0335319], [69.4182549, 41.0442218], [69.4193844, 41.0505235], [69.4281526, 41.0535159], [69.4152509, 41.0590047], [69.4160212, 41.0630701], [69.430887, 41.0673966], [69.4363282, 41.0720079], [69.4191287, 41.0825747], [69.4194874, 41.0865695], [69.4257172, 41.0873204], [69.4273378, 41.0920057], [69.4221175, 41.0964705], [69.4285864, 41.1065202], [69.4274686, 41.1172405], [69.4398694, 41.1232888]]]}, "properties": {"name": "Ахангаранский район", "name_uz": "Ohangaron Tumani", "admin_level": "6", "osm_id": 5745852}}, {"type": "Feature", "geometry": {"type": "Polygon", "coordinates": [[[69.1193365, 40.9478841], [69.1401323, 40.9700048], [69.1544061, 40.9763419], [69.1626758, 40.9757638], [69.1617563, 40.9791695], [69.1718993, 40.9894422], [69.1803098, 40.9928207], [69.1811978, 40.9967219], [69.169694, 41.0033591], [69.1772632, 41.0088365], [69.1919206, 41.0083673], [69.1931642, 41.0101101], [69.1830783, 41.018904], [69.1852139, 41.0220318], [69.1987818, 41.021937], [69.2032551, 41.0329945], [69.2142253, 41.0424548], [69.214237, 41.0482743], [69.2102591, 41.050005], [69.1936988, 41.0450632], [69.1856835, 41.0485182], [69.1975861, 41.0575469], [69.1926339, 41.0627626], [69.1816661, 41.0554122], [69.1723388, 41.0544034], [69.1626238, 41.0461904], [69.1618101, 41.0501412], [69.1694477, 41.0536141], [69.1688951, 41.0587655], [69.1750487, 41.0684306], [69.1721486, 41.0689318], [69.1769225, 41.0759403], [69.1696213, 41.0835407], [69.1763456, 41.0907358], [69.182933, 41.0911387], [69.1788394, 41.0861574], [69.1846995, 41.0861426], [69.2082268, 41.0939457], [69.2090521, 41.0983107], [69.2194281, 41.0948691], [69.2202069, 41.0911531], [69.2254826, 41.0913876], [69.2210162, 41.0831204], [69.22494, 41.0825686], [69.2301108, 41.0913013], [69.2288888, 41.0959111], [69.2370278, 41.1055131], [69.247179, 41.1070914], [69.2497616, 41.121106], [69.2400748, 41.1214369], [69.2403204, 41.1256892], [69.2511062, 41.1385632], [69.2577224, 41.1648868], [69.2748735, 41.1637495], [69.2886364, 41.1692598], [69.3223457, 41.1677472], [69.3354727, 41.1626584], [69.4007955, 41.1604181], [69.3929422, 41.1521967], [69.4080892, 41.1517679], [69.4099238, 41.148225], [69.4153891, 41.1509897], [69.4225579, 41.148599], [69.4379194, 41.1538342], [69.4420723, 41.1586449], [69.4397991, 41.153322], [69.4290666, 41.1481549], [69.4398694, 41.1232888], [69.4274686, 41.1172405], [69.4285864, 41.1065202], [69.4221175, 41.0964705], [69.4273378, 41.0920057], [69.4257172, 41.0873204], [69.4193413, 41.086159], [69.4197348, 41.0814792], [69.4363282, 41.0720079], [69.430887, 41.0673966], [69.4160212, 41.0630701], [69.4152509, 41.0590047], [69.4281526, 41.0535159], [69.4193844, 41.0505235], [69.4182549, 41.0442218], [69.4314261, 41.0335319], [69.4446359, 41.0304525], [69.4411351, 41.0134333], [69.4521895, 41.0046703], [69.4548693, 40.9930407], [69.4624622, 40.9834322], [69.4750797, 40.9750867], [69.4954138, 40.9407175], [69.512261, 40.9305857], [69.5133096, 40.9194647], [69.4665215, 40.9193748], [69.4391311, 40.9317222], [69.4123798, 40.9507285], [69.3729402, 40.9661139], [69.3612797, 40.9606029], [69.3606755, 40.9550849], [69.3561299, 40.9508736], [69.3509088, 40.9530023], [69.3392982, 40.948594], [69.3325113, 40.9497157], [69.3254998, 40.9537112], [69.2976613, 40.9902738], [69.2666826, 40.9958173], [69.2565814, 40.9928162], [69.244851, 40.9958241], [69.2225471, 40.9946682], [69.2204067, 40.9906341], [69.2087288, 40.9873825], [69.1901895, 40.9753192], [69.1722617, 40.9706005], [69.1495173, 40.9581208], [69.1415761, 40.9589931], [69.1293034, 40.951142], [69.1290146, 40.9479795], [69.1193365, 40.9478841]]]}, "properties": {"name": "Уртачирчикский район", "name_uz": "O'rtachirchiq Tumani", "admin_level": "6", "osm_id": 5748378}}, {"type": "Feature", "geometry": {"type": "Polygon", "coordinates": [[[68.8416475, 41.1348638], [68.8595651, 41.1429563], [68.8818154, 41.1596052], [68.9132161, 41.1729953], [68.9154833, 41.182323], [68.9319421, 41.1827698], [68.9385578, 41.1915547], [68.9863398, 41.2106692], [68.9953688, 41.220804], [68.9973744, 41.2255614], [68.9936311, 41.2308224], [69.0011944, 41.2388836], [69.0114426, 41.2276327], [69.0314139, 41.2256495], [69.034971, 41.2113202], [69.0187607, 41.2036983], [69.0412019, 41.1954865], [69.0464137, 41.1891175], [69.0658034, 41.1985458], [69.0834415, 41.1963286], [69.0853392, 41.1926819], [69.0938322, 41.2045229], [69.1105792, 41.212321], [69.1283574, 41.2054596], [69.1429335, 41.1916026], [69.1138649, 41.1697671], [69.1218596, 41.1621001], [69.1264647, 41.1618089], [69.1279459, 41.1573397], [69.1362445, 41.161472], [69.1578905, 41.1582365], [69.1721031, 41.1674026], [69.1928356, 41.1659625], [69.2116621, 41.173478], [69.2285517, 41.168134], [69.2137671, 41.1606161], [69.1953258, 41.141286], [69.1774008, 41.1326859], [69.1624207, 41.114212], [69.1646086, 41.1097836], [69.1578624, 41.1077045], [69.1480637, 41.0971283], [69.1509207, 41.0903986], [69.1435307, 41.0881372], [69.1446423, 41.0835692], [69.1110718, 41.0677744], [69.0844808, 41.0603494], [69.0721334, 41.0514128], [69.0712889, 41.0467293], [69.0628275, 41.0428618], [69.054911, 41.0449233], [69.0536927, 41.0403496], [69.0453743, 41.0379687], [69.0429889, 41.0293531], [69.035819, 41.021708], [69.0183069, 41.0167862], [68.998271, 40.9960214], [68.9968339, 40.9911193], [68.9797007, 40.9836942], [68.9626628, 40.9872214], [68.9547094, 40.9973773], [68.961227, 41.0096781], [68.974334, 41.0228656], [68.9690716, 41.0284147], [68.971361, 41.0374022], [68.9562635, 41.0427048], [68.9467276, 41.0509426], [68.9466768, 41.0623058], [68.9607206, 41.0694954], [68.9576865, 41.0757041], [68.9388747, 41.070149], [68.9100935, 41.0502123], [68.8808788, 41.076619], [68.8578302, 41.0721827], [68.8596082, 41.0813089], [68.8508261, 41.0941713], [68.855849, 41.1008986], [68.8546709, 41.1075233], [68.8570702, 41.1097207], [68.8497984, 41.1154203], [68.8537234, 41.1236088], [68.8475596, 41.1260928], [68.8416475, 41.1348638]]]}, "properties": {"name": "Янгиюльский район", "name_uz": "Yangiyo'l Tumani", "admin_level": "6", "osm_id": 5748407}}, {"type": "Feature", "geometry": {"type": "Polygon", "coordinates": [[[68.6403992, 40.9448212], [68.6508882, 40.9430278], [68.6657066, 40.9572058], [68.6766383, 40.962347], [68.6841746, 40.9614108], [68.6841509, 40.9640192], [68.6976609, 40.9673201], [68.7114207, 40.9643142], [68.7368399, 40.9739162], [68.741594, 40.9814893], [68.749561, 40.9816797], [68.7476187, 40.9901727], [68.7582196, 40.9972647], [68.7525243, 41.0031188], [68.7611357, 41.0063611], [68.7548686, 41.0119713], [68.7474553, 41.0056781], [68.742342, 41.00581], [68.7218543, 41.028653], [68.7139132, 41.0310299], [68.7200831, 41.0474068], [68.8032671, 41.1154382], [68.8369462, 41.134037], [68.8416475, 41.1348638], [68.8475596, 41.1260928], [68.8537234, 41.1236088], [68.8497984, 41.1154203], [68.8570702, 41.1097207], [68.8546709, 41.1075233], [68.855849, 41.1008986], [68.8508261, 41.0941713], [68.8596082, 41.0813089], [68.8578302, 41.0721827], [68.8808788, 41.076619], [68.9100935, 41.0502123], [68.9388747, 41.070149], [68.9576865, 41.0757041], [68.9607206, 41.0694954], [68.9466768, 41.0623058], [68.9467276, 41.0509426], [68.9562635, 41.0427048], [68.971361, 41.0374022], [68.9690716, 41.0284147], [68.974334, 41.0228656], [68.961227, 41.0096781], [68.9547094, 40.9973773], [68.9626628, 40.9872214], [68.974871, 40.9834906], [68.9693182, 40.9795061], [68.9314152, 40.9785118], [68.931082, 40.9748638], [68.9230787, 40.9731026], [68.9246116, 40.9681333], [68.9168813, 40.9610213], [68.898681, 40.961122], [68.8942869, 40.9575073], [68.8900069, 40.9632436], [68.8786603, 40.9558212], [68.8712231, 40.958523], [68.8709757, 40.9522471], [68.8622808, 40.9540326], [68.8540706, 40.9435028], [68.8442928, 40.9433761], [68.8445472, 40.9377224], [68.8369755, 40.939544], [68.8366096, 40.9348209], [68.826161, 40.9359509], [68.8009216, 40.9265343], [68.7861002, 40.9252169], [68.7799985, 40.916033], [68.7654527, 40.9131874], [68.7536396, 40.9037814], [68.7435335, 40.9106436], [68.7055761, 40.8993343], [68.6921723, 40.9056865], [68.684841, 40.9179799], [68.6648279, 40.9226941], [68.6456525, 40.9372258], [68.6403992, 40.9448212]]]}, "properties": {"name": "Чиназский район", "name_uz": "Chinoz Tumani", "admin_level": "6", "osm_id": 5748414}}, {"type": "Feature", "geometry": {"type": "Polygon", "coordinates": [[[68.7055761, 40.8993343], [68.7435335, 40.9106436], [68.7497987, 40.9047549], [68.7554539, 40.9040307], [68.7654527, 40.9131874], [68.7799985, 40.916033], [68.7861002, 40.9252169], [68.8009216, 40.9265343], [68.826161, 40.9359509], [68.8366096, 40.9348209], [68.8369755, 40.939544], [68.8445472, 40.9377224], [68.8442928, 40.9433761], [68.8540706, 40.9435028], [68.8622808, 40.9540326], [68.8709757, 40.9522471], [68.8712231, 40.958523], [68.8786603, 40.9558212], [68.8900069, 40.9632436], [68.8942869, 40.9575073], [68.898681, 40.961122], [68.9168813, 40.9610213], [68.9246116, 40.9681333], [68.9230787, 40.9731026], [68.931082, 40.9748638], [68.9314152, 40.9785118], [68.9664887, 40.9784128], [68.9941492, 40.9894544], [69.0183069, 41.0167862], [69.0281268, 41.0178334], [69.0413044, 41.0264887], [69.0453743, 41.0379687], [69.0536927, 41.0403496], [69.054911, 41.0449233], [69.0628275, 41.0428618], [69.0712889, 41.0467293], [69.0721334, 41.0514128], [69.0844808, 41.0603494], [69.1110718, 41.0677744], [69.1446423, 41.0835692], [69.1435307, 41.0881372], [69.1509207, 41.0903986], [69.1480637, 41.0971283], [69.1578624, 41.1077045], [69.1646086, 41.1097836], [69.1624207, 41.114212], [69.1699164, 41.1245617], [69.1774008, 41.1326859], [69.1953258, 41.141286], [69.2137671, 41.1606161], [69.2285517, 41.168134], [69.2577224, 41.1648868], [69.2511062, 41.1385632], [69.2403204, 41.1256892], [69.2400748, 41.1214369], [69.2497616, 41.121106], [69.247179, 41.1070914], [69.2370278, 41.1055131], [69.2288888, 41.0959111], [69.2301108, 41.0913013], [69.22494, 41.0825686], [69.2210162, 41.0831204], [69.2254826, 41.0913876], [69.2202069, 41.0911531], [69.2194281, 41.0948691], [69.2090521, 41.0983107], [69.2082268, 41.0939457], [69.1846995, 41.0861426], [69.1788394, 41.0861574], [69.182933, 41.0911387], [69.1763456, 41.0907358], [69.1695428, 41.0833861], [69.1769225, 41.0759403], [69.1721486, 41.0689318], [69.1750487, 41.0684306], [69.1688951, 41.0587655], [69.1694477, 41.0536141], [69.1618101, 41.0501412], [69.1626238, 41.0461904], [69.1723388, 41.0544034], [69.1816661, 41.0554122], [69.1926339, 41.0627626], [69.1975861, 41.0575469], [69.1856835, 41.0485182], [69.1936988, 41.0450632], [69.2102591, 41.050005], [69.214237, 41.0482743], [69.2142253, 41.0424548], [69.2032551, 41.0329945], [69.1987818, 41.021937], [69.1852139, 41.0220318], [69.1830783, 41.018904], [69.1931642, 41.0101101], [69.1919206, 41.0083673], [69.1772632, 41.0088365], [69.169694, 41.0033591], [69.1811978, 40.9967219], [69.1803098, 40.9928207], [69.1718993, 40.9894422], [69.1617563, 40.9791695], [69.1626758, 40.9757638], [69.1544061, 40.9763419], [69.1401323, 40.9700048], [69.1080279, 40.9358635], [69.0879121, 40.9214795], [69.0874704, 40.9176431], [69.078294, 40.9121384], [69.0713408, 40.9127614], [69.0513118, 40.8993496], [69.04944, 40.8937157], [69.0430138, 40.8891898], [69.0240056, 40.8828858], [69.0103684, 40.8655867], [68.9973238, 40.8651046], [68.9879014, 40.8591132], [68.9825212, 40.863081], [68.977743, 40.8602334], [68.9664666, 40.8636014], [68.9570155, 40.8538874], [68.9539862, 40.8565473], [68.9424804, 40.8530345], [68.9315289, 40.842972], [68.9333255, 40.8393717], [68.9296368, 40.8356627], [68.9355426, 40.8324524], [68.9305638, 40.8305002], [68.9288627, 40.8256988], [68.9168601, 40.8242887], [68.9152546, 40.8165579], [68.9076669, 40.8187637], [68.901226, 40.8129995], [68.894864, 40.817673], [68.8896367, 40.8087913], [68.8846101, 40.8160747], [68.8729037, 40.8135361], [68.870075, 40.8089939], [68.8611208, 40.808719], [68.8595058, 40.8031348], [68.8535427, 40.8043645], [68.8463468, 40.7963059], [68.8309055, 40.7923851], [68.8275588, 40.7966519], [68.8308075, 40.8064927], [68.8286274, 40.8167307], [68.8073103, 40.8204007], [68.7918426, 40.8315247], [68.7648252, 40.8379553], [68.7551456, 40.8499552], [68.7359961, 40.8445201], [68.7292419, 40.8469118], [68.7276873, 40.8542068], [68.741409, 40.8644942], [68.7402326, 40.8738034], [68.7290381, 40.8727933], [68.7170188, 40.8566089], [68.7060151, 40.8584233], [68.7095738, 40.8730457], [68.7219023, 40.8877354], [68.7204589, 40.8913537], [68.7098077, 40.8942214], [68.7055761, 40.8993343]]]}, "properties": {"name": "Куйичирчикский район", "name_uz": "Quyichirchiq Tumani", "admin_level": "6", "osm_id": 5748465}}, {"type": "Feature", "geometry": {"type": "Polygon", "coordinates": [[[68.8309055, 40.7923851], [68.8463468, 40.7963059], [68.8535427, 40.8043645], [68.8595058, 40.8031348], [68.8611208, 40.808719], [68.870075, 40.8089939], [68.8729037, 40.8135361], [68.8846101, 40.8160747], [68.8896367, 40.8087913], [68.894864, 40.817673], [68.901226, 40.8129995], [68.9076669, 40.8187637], [68.9152546, 40.8165579], [68.9168601, 40.8242887], [68.9288627, 40.8256988], [68.9305638, 40.8305002], [68.9355426, 40.8324524], [68.9296368, 40.8356627], [68.934643, 40.8466304], [68.9444872, 40.854097], [68.9539862, 40.8565473], [68.9578947, 40.8543211], [68.9657117, 40.8632978], [68.977743, 40.8602334], [68.9825212, 40.863081], [68.9879014, 40.8591132], [68.9973238, 40.8651046], [69.0103684, 40.8655867], [69.0240056, 40.8828858], [69.0430138, 40.8891898], [69.04944, 40.8937157], [69.0513118, 40.8993496], [69.0713408, 40.9127614], [69.0827538, 40.9142628], [69.1157835, 40.9459906], [69.1238168, 40.9498334], [69.1290146, 40.9479795], [69.1293034, 40.951142], [69.1415761, 40.9589931], [69.1495173, 40.9581208], [69.1722617, 40.9706005], [69.1925052, 40.9763719], [69.2071103, 40.9865555], [69.2204067, 40.9906341], [69.2225471, 40.9946682], [69.244851, 40.9958241], [69.2565814, 40.9928162], [69.2666826, 40.9958173], [69.2973461, 40.9903905], [69.2878197, 40.980486], [69.2664549, 40.9835596], [69.2602306, 40.9818368], [69.2571227, 40.963853], [69.2318889, 40.9381464], [69.2223529, 40.9330483], [69.1897837, 40.937814], [69.2063813, 40.9096911], [69.2218458, 40.8999467], [69.2268339, 40.8917404], [69.229548, 40.882221], [69.2209656, 40.87551], [69.1677635, 40.8711023], [69.1442904, 40.8593644], [69.10321, 40.8573244], [69.1093306, 40.8494778], [69.1058035, 40.8428075], [69.0870268, 40.8348022], [69.0850558, 40.8318195], [69.0871306, 40.8291508], [69.0765493, 40.8185531], [69.0757193, 40.808896], [69.0616109, 40.8105449], [69.0547642, 40.7965674], [69.0398259, 40.7889492], [69.0397221, 40.781173], [69.0430418, 40.7779523], [69.0491623, 40.7791307], [69.0497848, 40.7737888], [69.0573577, 40.7675036], [69.0122315, 40.7484089], [69.012439, 40.7403922], [69.0233315, 40.735676], [69.0358009, 40.7392519], [69.0645961, 40.7403482], [69.067056, 40.7378266], [69.0611233, 40.7339248], [69.0609187, 40.7260937], [69.0319627, 40.7109716], [69.0081226, 40.7060853], [68.9984024, 40.6870019], [68.9609779, 40.6656061], [68.9522296, 40.6734127], [68.9641563, 40.6828422], [68.9525665, 40.6968491], [68.9511932, 40.7101229], [68.9342044, 40.7148088], [68.9223541, 40.7129856], [68.9116209, 40.7182464], [68.9059303, 40.7288513], [68.9075912, 40.7409548], [68.8969675, 40.7591247], [68.894545, 40.7704724], [68.8751472, 40.7855513], [68.8309055, 40.7923851]]]}, "properties": {"name": "Аккурганский район", "name_uz": "Oqqoʻrgʻon Tumani", "admin_level": "6", "osm_id": 5750388}}, {"type": "Feature", "geometry": {"type": "Polygon", "coordinates": [[[69.1891466, 40.8720811], [69.2209656, 40.87551], [69.229548, 40.882221], [69.2218458, 40.8999467], [69.2063813, 40.9096911], [69.1897837, 40.937814], [69.2223529, 40.9330483], [69.2318889, 40.9381464], [69.2571227, 40.963853], [69.2602306, 40.9818368], [69.2664549, 40.9835596], [69.2878197, 40.980486], [69.2973461, 40.9903905], [69.3254998, 40.9537112], [69.3325113, 40.9497157], [69.3392982, 40.948594], [69.3509088, 40.9530023], [69.3561299, 40.9508736], [69.3606755, 40.9550849], [69.3612797, 40.9606029], [69.3729402, 40.9661139], [69.4123798, 40.9507285], [69.4391311, 40.9317222], [69.4665215, 40.9193748], [69.5197509, 40.9197884], [69.5573396, 40.9059883], [69.5779779, 40.9068447], [69.6138318, 40.8974241], [69.628544, 40.8902843], [69.6555562, 40.8854387], [69.6663573, 40.8676246], [69.6630685, 40.8479626], [69.6745914, 40.8497431], [69.6829003, 40.8435855], [69.6953447, 40.8429579], [69.6968381, 40.8390666], [69.7038069, 40.8365559], [69.6998247, 40.8233734], [69.7184083, 40.8039086], [69.7349179, 40.7761585], [69.7568201, 40.7625869], [69.7617149, 40.7629639], [69.77026, 40.7526578], [69.7900881, 40.7453671], [69.7968081, 40.7268855], [69.819291, 40.7184602], [69.82015, 40.7057796], [69.8149564, 40.7072855], [69.7931644, 40.7015934], [69.7896437, 40.6895212], [69.7748788, 40.674966], [69.7702442, 40.6644241], [69.7616907, 40.6592546], [69.7648903, 40.6515754], [69.7582514, 40.6452328], [69.7423322, 40.6423275], [69.7348518, 40.6351387], [69.7204874, 40.6286889], [69.7120501, 40.6304859], [69.6984293, 40.6274767], [69.685285, 40.632711], [69.6692671, 40.6341375], [69.6665358, 40.6489738], [69.6612645, 40.657996], [69.6633366, 40.6597973], [69.6532026, 40.6657264], [69.6516941, 40.6710895], [69.643268, 40.6748242], [69.6365813, 40.6732035], [69.625336, 40.6762627], [69.6171218, 40.6897413], [69.593442, 40.6972646], [69.5837513, 40.7040953], [69.5825748, 40.7109669], [69.5743437, 40.7203169], [69.5725376, 40.7286229], [69.5756524, 40.7324507], [69.5716377, 40.7436629], [69.5596993, 40.7571202], [69.5580172, 40.7642764], [69.5451452, 40.7725626], [69.5369032, 40.771382], [69.5347158, 40.7770518], [69.5241544, 40.7756395], [69.5185651, 40.7825298], [69.5149722, 40.7771914], [69.5024409, 40.7796667], [69.4974067, 40.7872654], [69.4968862, 40.7974442], [69.4799194, 40.7916679], [69.4743585, 40.7807296], [69.4705577, 40.7840687], [69.4553448, 40.7841504], [69.4442184, 40.7893925], [69.4376888, 40.7888601], [69.4285122, 40.7835084], [69.4201142, 40.759067], [69.4058857, 40.7520716], [69.3955952, 40.766384], [69.3886311, 40.7842273], [69.3734567, 40.7906468], [69.3476609, 40.7749138], [69.3528996, 40.7703781], [69.3546577, 40.7632612], [69.3593862, 40.7608705], [69.3576354, 40.755861], [69.3614056, 40.7527604], [69.3243339, 40.7489084], [69.3275584, 40.7629774], [69.3124816, 40.7717813], [69.3022888, 40.7726406], [69.2932597, 40.7643519], [69.2862371, 40.7631085], [69.2797618, 40.7676675], [69.2831363, 40.7836906], [69.2923477, 40.7851407], [69.296087, 40.7897673], [69.2996439, 40.8066134], [69.310953, 40.8080631], [69.3135067, 40.8144827], [69.3298319, 40.826837], [69.3268222, 40.8335308], [69.3153307, 40.8337378], [69.3112266, 40.8413279], [69.3062561, 40.8409139], [69.2956766, 40.8296319], [69.2862733, 40.8271396], [69.2883369, 40.82265], [69.2719565, 40.8212835], [69.2707957, 40.8278228], [69.2098392, 40.8265305], [69.2138229, 40.8490984], [69.2089891, 40.8541486], [69.2020578, 40.8561491], [69.1927551, 40.8518721], [69.1788924, 40.8571838], [69.181902, 40.8623572], [69.189107, 40.8647023], [69.1891466, 40.8720811]]]}, "properties": {"name": "Пскентский район", "name_uz": "Piskent Tumani", "admin_level": "6", "osm_id": 5750391}}, {"type": "Feature", "geometry": {"type": "Polygon", "coordinates": [[[68.9609779, 40.6656061], [68.9984024, 40.6870019], [69.0081226, 40.7060853], [69.0319627, 40.7109716], [69.0609187, 40.7260937], [69.0611233, 40.7339248], [69.067056, 40.7378266], [69.0645961, 40.7403482], [69.0358009, 40.7392519], [69.0233315, 40.735676], [69.012439, 40.7403922], [69.0122315, 40.7484089], [69.0573577, 40.7675036], [69.0497848, 40.7737888], [69.0491623, 40.7791307], [69.0430418, 40.7779523], [69.0397221, 40.781173], [69.0398259, 40.7889492], [69.0547642, 40.7965674], [69.0616109, 40.8105449], [69.0757193, 40.808896], [69.0765493, 40.8185531], [69.0871306, 40.8291508], [69.0850558, 40.8318195], [69.0870268, 40.8348022], [69.1058035, 40.8428075], [69.1093306, 40.8494778], [69.10321, 40.8573244], [69.1442904, 40.8593644], [69.1677635, 40.8711023], [69.1891466, 40.8720811], [69.189107, 40.8647023], [69.181902, 40.8623572], [69.1788924, 40.8571838], [69.1927551, 40.8518721], [69.2049762, 40.8561491], [69.2138229, 40.8490984], [69.2098392, 40.8265305], [69.2707957, 40.8278228], [69.2719565, 40.8212835], [69.2883369, 40.82265], [69.2862733, 40.8271396], [69.2956766, 40.8296319], [69.3062561, 40.8409139], [69.3112266, 40.8413279], [69.3153307, 40.8337378], [69.3268222, 40.8335308], [69.3298319, 40.826837], [69.3135067, 40.8144827], [69.310953, 40.8080631], [69.2996439, 40.8066134], [69.296087, 40.7897673], [69.2923477, 40.7851407], [69.2831363, 40.7836906], [69.2797618, 40.7676675], [69.2862371, 40.7631085], [69.2932597, 40.7643519], [69.3022888, 40.7726406], [69.3124816, 40.7717813], [69.3275584, 40.7629774], [69.3243339, 40.7489084], [69.3576429, 40.7526458], [69.3644583, 40.7443008], [69.3596909, 40.739659], [69.3620893, 40.7336081], [69.3510391, 40.7319769], [69.355893, 40.7266933], [69.3467643, 40.7243955], [69.3461971, 40.712271], [69.3396048, 40.7125169], [69.328556, 40.7040627], [69.3343875, 40.6946219], [69.3228936, 40.6938175], [69.3273354, 40.6890179], [69.3196427, 40.6828999], [69.3215846, 40.6775137], [69.315319, 40.6787505], [69.3157481, 40.6706786], [69.3126582, 40.6678141], [69.3157164, 40.6592122], [69.3214774, 40.6575433], [69.314096, 40.6540272], [69.3015861, 40.6539132], [69.2996228, 40.6460337], [69.3028931, 40.6406523], [69.2821054, 40.632237], [69.264918, 40.6328299], [69.2291008, 40.6262166], [69.2144374, 40.6185078], [69.1747846, 40.6120547], [69.1559655, 40.6026189], [69.1336874, 40.6072479], [69.1183047, 40.601824], [69.1128804, 40.6134642], [69.1024764, 40.6162864], [69.1069828, 40.6217757], [69.0745767, 40.6272804], [69.0702271, 40.6341696], [69.0621026, 40.6358473], [69.0515329, 40.6449749], [69.0366489, 40.6475849], [69.0061273, 40.6412009], [68.9889587, 40.6437273], [68.9871145, 40.6482117], [69.0061249, 40.6650853], [69.0004832, 40.6706601], [68.9609779, 40.6656061]]]}, "properties": {"name": "Букинский район", "name_uz": "Bo'ka Tumani", "admin_level": "6", "osm_id": 5750395}}, {"type": "Feature", "geometry": {"type": "Polygon", "coordinates": [[[69.0560142, 40.6215569], [69.0523626, 40.6285252], [69.0648244, 40.6353653], [69.0702271, 40.6341696], [69.0745767, 40.6272804], [69.1069828, 40.6217757], [69.1024764, 40.6162864], [69.1128804, 40.6134642], [69.1183047, 40.601824], [69.1336874, 40.6072479], [69.1559655, 40.6026189], [69.1747846, 40.6120547], [69.2144374, 40.6185078], [69.2291008, 40.6262166], [69.264918, 40.6328299], [69.2821054, 40.632237], [69.3028931, 40.6406523], [69.2996228, 40.6460337], [69.3015861, 40.6539132], [69.314096, 40.6540272], [69.3214774, 40.6575433], [69.3157164, 40.6592122], [69.3126582, 40.6678141], [69.3157481, 40.6706786], [69.315319, 40.6787505], [69.3215846, 40.6775137], [69.3196427, 40.6828999], [69.3273354, 40.6890179], [69.3228936, 40.6938175], [69.3373693, 40.693675], [69.3423337, 40.6859662], [69.3370613, 40.6586167], [69.3475834, 40.6146475], [69.3477633, 40.5897553], [69.3440851, 40.5810707], [69.3270117, 40.5816848], [69.3196767, 40.5786389], [69.2842512, 40.5818777], [69.2781383, 40.5745437], [69.262298, 40.5763465], [69.2267724, 40.5499375], [69.2110309, 40.5467856], [69.2119356, 40.5407923], [69.2212012, 40.5364079], [69.2203949, 40.5311971], [69.2308738, 40.5226758], [69.240464, 40.5199204], [69.2479682, 40.5102331], [69.2564244, 40.50704], [69.2627941, 40.4999791], [69.2798596, 40.4928554], [69.2786462, 40.4894521], [69.2716269, 40.4879042], [69.2697482, 40.4843616], [69.2724938, 40.4795836], [69.2664257, 40.4759476], [69.2717881, 40.4682743], [69.2677196, 40.4597181], [69.2793254, 40.451884], [69.2839318, 40.4434292], [69.2859791, 40.4236111], [69.2833969, 40.4200006], [69.2984432, 40.411835], [69.2911155, 40.4023807], [69.2929431, 40.3949576], [69.3065043, 40.3867854], [69.3071662, 40.3799935], [69.3033492, 40.3757943], [69.3026136, 40.3681354], [69.3161832, 40.3566645], [69.3362895, 40.3487557], [69.3405083, 40.3390216], [69.3380353, 40.3213484], [69.3277126, 40.3082749], [69.3282873, 40.2972119], [69.3227427, 40.2927099], [69.3116378, 40.2903322], [69.3072914, 40.2861836], [69.30743, 40.2818881], [69.2598658, 40.2972148], [69.2491996, 40.3034926], [69.2466118, 40.2954433], [69.2525223, 40.291329], [69.2546688, 40.2837093], [69.2490595, 40.2810251], [69.2477846, 40.2748134], [69.2611703, 40.2638247], [69.2626938, 40.2582801], [69.3014549, 40.2448134], [69.2971302, 40.2338033], [69.2886373, 40.2256852], [69.2904817, 40.217441], [69.2989793, 40.2072579], [69.300419, 40.1966526], [69.3055068, 40.1950935], [69.3043122, 40.1884416], [69.2740159, 40.2019893], [69.2611718, 40.200725], [69.2465129, 40.2082559], [69.2300606, 40.2082541], [69.1977366, 40.2150728], [69.1652047, 40.2131077], [69.154612, 40.2315173], [69.141841, 40.2394805], [69.1321906, 40.26336], [69.0835945, 40.3041985], [69.0753044, 40.3175646], [69.0737658, 40.357885], [69.0863501, 40.3705622], [69.0781124, 40.3782474], [69.0801616, 40.3898839], [69.0765929, 40.3980203], [69.0876701, 40.401951], [69.0964613, 40.4123991], [69.1103233, 40.4197097], [69.1188786, 40.434081], [69.1149409, 40.4492286], [69.1047017, 40.4572847], [69.1032852, 40.47314], [69.0852608, 40.483586], [69.0874924, 40.4912888], [69.1073928, 40.4986341], [69.1056885, 40.5051256], [69.0968819, 40.50926], [69.0846422, 40.5031528], [69.0647059, 40.5019985], [69.0760855, 40.5110333], [69.0807976, 40.5194815], [69.0817632, 40.5558307], [69.0765771, 40.5700847], [69.0909116, 40.5706457], [69.0999219, 40.5614692], [69.1058165, 40.5663248], [69.0959038, 40.5789606], [69.083238, 40.5870603], [69.0756566, 40.5817899], [69.0739487, 40.5713273], [69.0669432, 40.5698344], [69.0589667, 40.5730789], [69.060615, 40.5796247], [69.0818011, 40.5896274], [69.0909256, 40.6005999], [69.0865947, 40.6072822], [69.0696396, 40.6101138], [69.0560142, 40.6215569]]]}, "properties": {"name": "Бекабадский район", "name_uz": "Bekobod Tumani", "admin_level": "6", "osm_id": 5750396}}, {"type": "Feature", "geometry": {"type": "Polygon", "coordinates": [[[69.023033, 41.1053349], [69.0348057, 41.114789], [69.0317681, 41.1184459], [69.0488201, 41.1238292], [69.0643423, 41.1438095], [69.0715394, 41.1364416], [69.0858866, 41.1514183], [69.0912259, 41.1518348], [69.0939955, 41.1483178], [69.0900036, 41.1252649], [69.0859325, 41.1232925], [69.0762771, 41.1256231], [69.0667639, 41.1123882], [69.0688933, 41.1076056], [69.0642627, 41.1098761], [69.0556874, 41.0978312], [69.033751, 41.0953527], [69.023033, 41.1053349]]]}, "properties": {"name": "Янгиюль", "name_uz": "Yangiyo'l shahri", "admin_level": "6", "osm_id": 7163853}}, {"type": "Feature", "geometry": {"type": "Polygon", "coordinates": [[[69.5763794, 41.4287131], [69.5680977, 41.4245806], [69.5748897, 41.4345598], [69.557844, 41.4360759], [69.5344379, 41.42216], [69.533332, 41.4264252], [69.5245764, 41.4303861], [69.5343986, 41.4433036], [69.531473, 41.4480732], [69.5351465, 41.4575377], [69.5313741, 41.4627462], [69.5627567, 41.4896815], [69.5617498, 41.4933443], [69.5902955, 41.5034762], [69.6061364, 41.5130913], [69.6190156, 41.5145906], [69.6320726, 41.5291715], [69.6291291, 41.5248076], [69.6367095, 41.5220335], [69.6425709, 41.5137959], [69.6341544, 41.5117939], [69.610438, 41.4869291], [69.5971895, 41.4488792], [69.5884505, 41.4368023], [69.5893704, 41.432617], [69.5763794, 41.4287131]]]}, "properties": {"name": "Чирчик", "name_uz": "Chirchiq shahri", "admin_level": "6", "osm_id": 7723809}}, {"type": "Feature", "geometry": {"type": "Polygon", "coordinates": [[[69.2113129, 40.2155658], [69.2019031, 40.2227378], [69.2402199, 40.2294613], [69.2410284, 40.2374958], [69.2554666, 40.2334425], [69.2657349, 40.2460808], [69.2744552, 40.2429779], [69.2808066, 40.2522805], [69.3006912, 40.2447575], [69.2957412, 40.2347224], [69.2878448, 40.2298735], [69.289218, 40.2183396], [69.2980053, 40.2079444], [69.2980929, 40.2008186], [69.3038669, 40.1920693], [69.3005868, 40.1893525], [69.2722236, 40.2030016], [69.2643462, 40.2011356], [69.2569066, 40.2067493], [69.2306244, 40.2089268], [69.2113129, 40.2155658]]]}, "properties": {"name": "Бекабад", "name_uz": "Bekobod shahri", "admin_level": "6", "osm_id": 7726940}}, {"type": "Feature", "geometry": {"type": "Polygon", "coordinates": [[[69.5653776, 40.7869466], [69.5519871, 40.8037147], [69.5544422, 40.8190557], [69.5466104, 40.8216819], [69.5468699, 40.8193448], [69.5358457, 40.8178167], [69.5326531, 40.8225249], [69.5261257, 40.8245834], [69.523108, 40.8328568], [69.5163868, 40.8352294], [69.5167785, 40.8391399], [69.5226497, 40.8393641], [69.5209898, 40.8425508], [69.5317294, 40.8485771], [69.5120209, 40.8485861], [69.5002916, 40.8540018], [69.4998388, 40.8569439], [69.5040205, 40.8594188], [69.5207974, 40.8611329], [69.5041027, 40.862255], [69.5045113, 40.8711206], [69.5089193, 40.8711515], [69.5067391, 40.8834191], [69.5121217, 40.8951751], [69.5619961, 40.8919118], [69.5670879, 40.8959401], [69.5735364, 40.8931093], [69.5854613, 40.8988761], [69.6149664, 40.8939602], [69.6296305, 40.8881571], [69.6283134, 40.8812868], [69.6498548, 40.8802983], [69.6463485, 40.8776996], [69.646319, 40.8673923], [69.6322705, 40.866588], [69.6329412, 40.8615453], [69.6479696, 40.8579348], [69.6505611, 40.8622975], [69.6596535, 40.8607948], [69.6582288, 40.855785], [69.6491242, 40.8545306], [69.660775, 40.8467803], [69.6743191, 40.8492575], [69.684723, 40.8420977], [69.6884102, 40.8353935], [69.6887315, 40.8295706], [69.6849413, 40.824533], [69.6655824, 40.8184939], [69.6676666, 40.8138872], [69.6750156, 40.8141782], [69.6787878, 40.8039444], [69.6721946, 40.7992747], [69.6738591, 40.7929586], [69.6655131, 40.7912618], [69.6632204, 40.7772354], [69.6592228, 40.7765845], [69.6580442, 40.7850838], [69.6524558, 40.7898138], [69.6454819, 40.7867604], [69.6412506, 40.7989803], [69.6338352, 40.799161], [69.6330133, 40.7935329], [69.6279357, 40.7946751], [69.6260413, 40.7975587], [69.6298614, 40.8014229], [69.6236876, 40.8095093], [69.6122473, 40.8051306], [69.6033243, 40.8093131], [69.6019565, 40.7985827], [69.5903116, 40.7895085], [69.5751943, 40.7932065], [69.5707132, 40.788924], [69.5764003, 40.7870675], [69.5748085, 40.7834465], [69.5882928, 40.7697718], [69.5924414, 40.7503396], [69.5902611, 40.7406374], [69.597516, 40.7179645], [69.6052565, 40.7108902], [69.6256626, 40.7029083], [69.6076207, 40.7096116], [69.598905, 40.7097349], [69.5988785, 40.7141694], [69.5950579, 40.7180523], [69.5934223, 40.7163561], [69.5887625, 40.7369946], [69.5905099, 40.7490894], [69.5869075, 40.7697961], [69.5744576, 40.7792398], [69.5700643, 40.7791158], [69.5653776, 40.7869466]]]}, "properties": {"name": "Алмалык", "name_uz": "Olmaliq shahri", "admin_level": "6", "osm_id": 7726941}}, {"type": "Feature", "geometry": {"type": "Polygon", "coordinates": [[[69.9960496, 40.9732432], [69.9917343, 40.982169], [69.9961854, 40.9875331], [70.0073498, 40.9876506], [70.0135398, 40.9921006], [70.0214127, 41.0111754], [70.0187794, 41.0156434], [70.0230124, 41.0127506], [70.0317717, 41.0148199], [70.0379046, 41.0214905], [70.0409028, 41.0320407], [70.0440818, 41.0309343], [70.0452568, 41.0334507], [70.0378159, 41.041465], [70.0434507, 41.0384498], [70.0417347, 41.0544876], [70.0373025, 41.0583265], [70.0290392, 41.0582624], [70.0382041, 41.0597534], [70.0258696, 41.0773076], [70.0281754, 41.0782847], [70.0252556, 41.0779453], [70.0283528, 41.0792618], [70.0258833, 41.0819769], [70.0292806, 41.0857716], [70.027616, 41.0929595], [70.0303584, 41.0956021], [70.0269065, 41.0975248], [70.0298127, 41.0973192], [70.0321764, 41.1032053], [70.0330633, 41.1150941], [70.0367744, 41.1161066], [70.0333771, 41.1128378], [70.0304437, 41.0756363], [70.0377294, 41.075914], [70.0341929, 41.069097], [70.0387624, 41.0623825], [70.0420506, 41.0633855], [70.0458708, 41.0550086], [70.0508781, 41.0585992], [70.0538183, 41.0571177], [70.053982, 41.0548929], [70.0484955, 41.0558291], [70.0466337, 41.0502809], [70.0475429, 41.046231], [70.051475, 41.0460004], [70.0485416, 41.0426484], [70.0498667, 41.0394892], [70.0535642, 41.041074], [70.0544152, 41.0378709], [70.0584742, 41.0381797], [70.0623149, 41.0417506], [70.0634111, 41.0387963], [70.0651, 41.0426947], [70.0666517, 41.0394998], [70.0742581, 41.0450625], [70.0698036, 41.0484494], [70.0756534, 41.0478732], [70.0778432, 41.0502963], [70.0755033, 41.052439], [70.0799427, 41.0528737], [70.080381, 41.0595534], [70.0839147, 41.0599957], [70.0859084, 41.0701643], [70.0834151, 41.0775064], [70.0883933, 41.0827173], [70.0849718, 41.0997743], [70.0860602, 41.1133441], [70.0926939, 41.1234451], [70.0905728, 41.1262459], [70.0964704, 41.1263693], [70.0954744, 41.1223045], [70.1035366, 41.1228851], [70.1156, 41.1338304], [70.1198995, 41.1367155], [70.1222665, 41.1430084], [70.1278322, 41.1450559], [70.1294865, 41.1440028], [70.1074207, 41.1240122], [70.1100681, 41.1227464], [70.1097611, 41.1172681], [70.104634, 41.1165198], [70.1018358, 41.1120464], [70.0899146, 41.1108713], [70.0870282, 41.0918335], [70.0906794, 41.0822957], [70.109, 41.0847], [70.105, 41.08321], [70.132562, 41.0680171], [70.1550742, 41.073263], [70.1672263, 41.0715562], [70.1719106, 41.060415], [70.2031992, 41.060811], [70.2009479, 41.0591341], [70.2043725, 41.0585477], [70.2041815, 41.055307], [70.2140528, 41.0449406], [70.2154308, 41.0387559], [70.228215, 41.0278466], [70.2403852, 41.0353495], [70.2500211, 41.035612], [70.2388908, 41.027], [70.2379327, 41.0228081], [70.2421623, 41.0204405], [70.2226024, 41.0297493], [70.2034823, 41.0221184], [70.2019542, 41.017445], [70.2043282, 41.0151699], [70.2001734, 41.0155985], [70.2103505, 41.0095478], [70.2058597, 41.0045912], [70.2100756, 40.9985367], [70.1905858, 41.0002796], [70.1810203, 40.9960278], [70.1794998, 41.0039178], [70.1691273, 41.0026967], [70.1594493, 40.9850405], [70.1629006, 40.984738], [70.1625271, 40.9786753], [70.1539793, 40.9790977], [70.1466902, 40.9740709], [70.1381054, 40.9730876], [70.142151, 40.9706607], [70.1444304, 40.9725039], [70.1456123, 40.9720776], [70.1471644, 40.9729784], [70.1487928, 40.9727266], [70.1449301, 40.9713153], [70.148382, 40.9698113], [70.1474815, 40.9671997], [70.1523011, 40.9642996], [70.1556339, 40.9676433], [70.1567797, 40.9617651], [70.1634359, 40.9612155], [70.1610473, 40.9593236], [70.1630595, 40.9575744], [70.1713751, 40.9625893], [70.1712932, 40.958808], [70.1660268, 40.9545216], [70.1712523, 40.953754], [70.1770634, 40.9471509], [70.181318, 40.9356881], [70.1777331, 40.9276532], [70.1814776, 40.9228653], [70.2022066, 40.9136117], [70.21642, 40.913854], [70.2271098, 40.9083119], [70.2252748, 40.9067651], [70.1965444, 40.9132818], [70.1801003, 40.9218184], [70.1749498, 40.9305292], [70.1789474, 40.9367961], [70.1701131, 40.9488747], [70.1184885, 40.9824967], [70.1081773, 40.9749413], [70.1143545, 40.9746993], [70.1133448, 40.9639647], [70.1001104, 40.9679724], [70.0609937, 40.9550111], [70.0522254, 40.9563179], [70.0521292, 40.9686914], [70.0407055, 40.963975], [70.0168699, 40.9670658], [69.9928995, 40.959774], [69.9856751, 40.9609485], [69.9852112, 40.9700817], [69.9960496, 40.9732432]]]}, "properties": {"name": "Ангрен", "name_uz": "Angren shahri", "admin_level": "6", "osm_id": 7774377}}, {"type": "Feature", "geometry": {"type": "Polygon", "coordinates": [[[69.0213957, 41.355476], [69.040993, 41.3660588], [69.0494254, 41.3649387], [69.0523703, 41.3686746], [69.0789596, 41.377052], [69.0886611, 41.3685558], [69.0786043, 41.3579453], [69.0922828, 41.3569026], [69.0966342, 41.3586272], [69.0989701, 41.3714677], [69.1137554, 41.3914744], [69.121956, 41.3921261], [69.1275981, 41.3889324], [69.1329207, 41.392178], [69.1491278, 41.3934541], [69.1519282, 41.386581], [69.1551348, 41.3865743], [69.1754094, 41.4029417], [69.1683642, 41.4046827], [69.160423, 41.423892], [69.1499641, 41.4270933], [69.1487163, 41.430998], [69.1522853, 41.4287627], [69.1563832, 41.4344159], [69.164882, 41.4341165], [69.1662123, 41.438438], [69.1727165, 41.4410128], [69.1752899, 41.4409653], [69.1756086, 41.4365503], [69.1785567, 41.437193], [69.186137, 41.4526572], [69.1939072, 41.4543209], [69.1985293, 41.4520026], [69.2267559, 41.4628458], [69.2348669, 41.4586198], [69.2500639, 41.4663201], [69.2624279, 41.4526538], [69.2782747, 41.4497643], [69.2964633, 41.4356221], [69.3010195, 41.4394763], [69.3140895, 41.4400465], [69.3225012, 41.4499225], [69.3271619, 41.4496951], [69.3347279, 41.4574543], [69.3452107, 41.4590344], [69.3460698, 41.4626633], [69.3547491, 41.4675434], [69.3546403, 41.4726048], [69.3797169, 41.4653393], [69.4118225, 41.4704701], [69.4166326, 41.46583], [69.4153241, 41.4637767], [69.4199054, 41.4641409], [69.4128745, 41.4601239], [69.4098133, 41.44971], [69.3721241, 41.4456797], [69.373659, 41.4442528], [69.3456257, 41.4364465], [69.3422489, 41.4317974], [69.3442768, 41.4236166], [69.3335152, 41.4180796], [69.3325202, 41.4136193], [69.3013761, 41.4117221], [69.2956368, 41.4052724], [69.2960737, 41.3982116], [69.293398, 41.3959419], [69.2980746, 41.3922037], [69.3193839, 41.39055], [69.3225002, 41.3953934], [69.3305023, 41.3951341], [69.3326523, 41.3930423], [69.3286753, 41.3934541], [69.3268055, 41.389298], [69.333622, 41.3881641], [69.3334192, 41.3831783], [69.3425136, 41.3825579], [69.3357267, 41.3747902], [69.3250626, 41.3696722], [69.315796, 41.3848955], [69.2850918, 41.3838007], [69.2617782, 41.397128], [69.2358792, 41.3984767], [69.2117204, 41.3869713], [69.185009, 41.3681195], [69.1700668, 41.3656529], [69.1546827, 41.3423529], [69.1301896, 41.3431268], [69.1164348, 41.3523697], [69.0985591, 41.3529616], [69.0946109, 41.3502072], [69.0896542, 41.3363199], [69.0746982, 41.3394945], [69.0729601, 41.3353701], [69.0583904, 41.3268142], [69.0561932, 41.3107568], [69.0455177, 41.3100647], [69.0396461, 41.3274296], [69.0467427, 41.3495234], [69.0251087, 41.3513931], [69.0213957, 41.355476]]]}, "properties": {"name": "Ташкентский район", "name_uz": "Toshkent Tumani", "admin_level": "6", "osm_id": 11071441}}, {"type": "Feature", "geometry": {"type": "Polygon", "coordinates": [[[69.6436643, 40.9355981], [69.6479162, 40.940702], [69.6659792, 40.9353075], [69.661942, 40.9165602], [69.6722225, 40.9066411], [69.6709362, 40.8917329], [69.665179, 40.8877062], [69.6400028, 40.8902023], [69.621746, 40.8995734], [69.6091299, 40.9015043], [69.6135368, 40.9046541], [69.6071926, 40.9154709], [69.6198788, 40.9108622], [69.6229414, 40.9158401], [69.6100868, 40.9189417], [69.6112106, 40.9219287], [69.6368494, 40.9175292], [69.6436643, 40.9355981]]]}, "properties": {"name": "Ахангаран", "name_uz": "Ohangaron shahri", "admin_level": "6", "osm_id": 18507147}}, {"type": "Feature", "geometry": {"type": "Polygon", "coordinates": [[[69.3311959, 41.0630641], [69.3340454, 41.0734807], [69.3481342, 41.073162], [69.3601478, 41.0564738], [69.3777322, 41.042259], [69.3770302, 41.0324922], [69.3710633, 41.0206476], [69.3704747, 41.0078586], [69.3812814, 41.0012143], [69.3779259, 40.9887418], [69.3812509, 40.9886467], [69.3776812, 40.9856077], [69.3682488, 40.9825275], [69.3422463, 40.9948589], [69.3360257, 41.0038712], [69.310635, 41.0114474], [69.3311959, 41.0630641]]]}, "properties": {"name": "Нурафшан (Тойтепа)", "name_uz": "Nurafshon shahri", "admin_level": "6", "osm_id": 18507227}}]}